{"type": "FeatureCollection", "name": "군포철쭉축제 2026 (제12회) — 실도면 초안", "origin": [126.92504, 37.35526], "zoom": 17, "source": "부지·도로·산책로·화장실: OpenStreetMap. 구역 순서·부스 수(106): 2026 공식 행사장 안내도·리플렛(gunpofestival.or.kr). 부스 규격 3×3m·도로폭 14m·부스 좌표는 배치도 georeference 전 가정 — 담당자 원본 도면으로 교체할 것", "roadLengthM": 548.5, "boothCount": 114, "boothNote": "106 = 리플렛 명단(체험30·홍보14·푸드트럭10·먹거리17+10·판매19·특화3·후원2·보물1) + 편의4 + 전시2 + 사진대회접수1 + 한번더제작소1 = 114", "roadWidthM": 26, "features": [{"type": "Feature", "properties": {"kind": "site", "name": "철쭉동산", "source": "OSM way 468380995"}, "geometry": {"type": "Polygon", "coordinates": [[[126.9252214, 37.3543583], [126.9254218, 37.354303], [126.9255665, 37.3543138], [126.9256901, 37.3543177], [126.9258294, 37.3543232], [126.9259046, 37.3543529], [126.9259936, 37.3543947], [126.9259021, 37.3545933], [126.9258545, 37.3547387], [126.9258064, 37.3549137], [126.9257752, 37.35508], [126.9257188, 37.3554027], [126.9256454, 37.3556813], [126.9255735, 37.3558518], [126.9254967, 37.3560373], [126.9254096, 37.3562122], [126.9253094, 37.35637], [126.9251563, 37.356536], [126.9250181, 37.3564681], [126.924876, 37.35637], [126.9247392, 37.3563598], [126.924613, 37.3563055], [126.9245648, 37.3562848], [126.9244334, 37.3562208], [126.9243272, 37.3561254], [126.9242349, 37.3560502], [126.924192, 37.3559074], [126.9240364, 37.3557624], [126.9240901, 37.3555855], [126.9242204, 37.3555489], [126.9242007, 37.3553576], [126.9242376, 37.3553403], [126.9242567, 37.355337], [126.9244254, 37.3553083], [126.9245362, 37.355201], [126.9246079, 37.3550337], [126.9248202, 37.3548378], [126.9248751, 37.3547387], [126.924937, 37.3547671], [126.925038, 37.3547451], [126.9250934, 37.3547166], [126.9251911, 37.3545989], [126.9252122, 37.3545613], [126.9251683, 37.3545186], [126.9252101, 37.354454], [126.9252475, 37.3544132], [126.9252214, 37.3543583], [126.9252214, 37.3543583]]]}}, {"type": "Feature", "properties": {"kind": "planting", "name": "철쭉 식재지", "source": "OSM. 산책로·무대 앞만 걷는다 — 배치도 georeference 전 가정"}, "geometry": {"type": "Polygon", "coordinates": [[[126.9252214, 37.3543583], [126.9254218, 37.354303], [126.9255665, 37.3543138], [126.9256901, 37.3543177], [126.9258294, 37.3543232], [126.9259046, 37.3543529], [126.9259936, 37.3543947], [126.9259021, 37.3545933], [126.9258545, 37.3547387], [126.9258064, 37.3549137], [126.9257752, 37.35508], [126.9257188, 37.3554027], [126.9256454, 37.3556813], [126.9255735, 37.3558518], [126.9254967, 37.3560373], [126.9254096, 37.3562122], [126.9253094, 37.35637], [126.9251563, 37.356536], [126.9250181, 37.3564681], [126.924876, 37.35637], [126.9247392, 37.3563598], [126.924613, 37.3563055], [126.9245648, 37.3562848], [126.9244334, 37.3562208], [126.9243272, 37.3561254], [126.9242349, 37.3560502], [126.924192, 37.3559074], [126.9240364, 37.3557624], [126.9240901, 37.3555855], [126.9242204, 37.3555489], [126.9242007, 37.3553576], [126.9242376, 37.3553403], [126.9242567, 37.355337], [126.9244254, 37.3553083], [126.9245362, 37.355201], [126.9246079, 37.3550337], [126.9248202, 37.3548378], [126.9248751, 37.3547387], [126.924937, 37.3547671], [126.925038, 37.3547451], [126.9250934, 37.3547166], [126.9251911, 37.3545989], [126.9252122, 37.3545613], [126.9251683, 37.3545186], [126.9252101, 37.354454], [126.9252475, 37.3544132], [126.9252214, 37.3543583], [126.9252214, 37.3543583]]]}}, {"type": "Feature", "properties": {"kind": "site", "name": "양지철쭉공원", "source": "OSM way 468380996"}, "geometry": {"type": "Polygon", "coordinates": [[[126.9253382, 37.3542754], [126.9253021, 37.3542527], [126.9252632, 37.3541938], [126.9252017, 37.3540511], [126.9251638, 37.3539461], [126.9251107, 37.3538073], [126.9250754, 37.3536832], [126.925047, 37.3535732], [126.9250676, 37.3533759], [126.9251267, 37.3530387], [126.9252062, 37.3526207], [126.9252953, 37.3522754], [126.9253371, 37.3520506], [126.9253635, 37.3519659], [126.9253869, 37.3518937], [126.925397, 37.3518528], [126.9255066, 37.3518069], [126.9256426, 37.3517706], [126.9257889, 37.3517424], [126.9258024, 37.3517798], [126.9262636, 37.353168], [126.926399, 37.3535259], [126.9264396, 37.3536306], [126.9264696, 37.3537432], [126.9263521, 37.3538661], [126.9262551, 37.3539687], [126.9261882, 37.3540845], [126.926081, 37.3542224], [126.9259936, 37.3543947], [126.9259046, 37.3543529], [126.9258294, 37.3543232], [126.9256901, 37.3543177], [126.9255665, 37.3543138], [126.9254218, 37.354303], [126.9253382, 37.3542754], [126.9253382, 37.3542754]]]}}, {"type": "Feature", "properties": {"kind": "corridor", "width": 3, "name": "", "source": "OSM way 468365880"}, "geometry": {"type": "LineString", "coordinates": [[126.9251114, 37.3540879], [126.9251725, 37.3540894], [126.9252023, 37.3541337], [126.9252464, 37.3542396], [126.9252405, 37.3543212], [126.9252976, 37.3544234], [126.9253797, 37.3545116], [126.9254041, 37.3545382], [126.9254183, 37.3545837], [126.9254162, 37.3546468], [126.9253895, 37.3547169], [126.9253492, 37.3547985], [126.9253044, 37.3548469], [126.9252366, 37.3548878], [126.9252967, 37.3548837], [126.9253725, 37.3549023], [126.9254075, 37.3549398], [126.9254579, 37.3550147], [126.9254991, 37.3550904], [126.9254296, 37.3551329], [126.9253972, 37.3551986], [126.9254034, 37.3552662], [126.925443, 37.3553323], [126.9253951, 37.3553659], [126.9253397, 37.3553865], [126.9252743, 37.3554108], [126.9252303, 37.3554202], [126.9252181, 37.3554369], [126.9251336, 37.3554473], [126.9250525, 37.3554412], [126.9250419, 37.3554404], [126.9249973, 37.3554274], [126.9249616, 37.3554022], [126.9249887, 37.3553296], [126.9249794, 37.3552452], [126.9249716, 37.3551866], [126.9249728, 37.3551424], [126.924982, 37.3550838], [126.9250006, 37.3550321], [126.9250385, 37.3549919], [126.9250808, 37.3549688], [126.9251298, 37.354946], [126.9252366, 37.3548878]]}}, {"type": "Feature", "properties": {"kind": "corridor", "width": 3, "name": "", "source": "OSM way 468365881"}, "geometry": {"type": "LineString", "coordinates": [[126.9254579, 37.3550147], [126.9253255, 37.3550732], [126.92529, 37.3551206], [126.9252847, 37.3551839], [126.9252662, 37.3552499], [126.9252523, 37.3553175], [126.9252425, 37.3553751], [126.9252303, 37.3554202]]}}, {"type": "Feature", "properties": {"kind": "corridor", "width": 3, "name": "", "source": "OSM way 468365882"}, "geometry": {"type": "LineString", "coordinates": [[126.9253972, 37.3551986], [126.9253314, 37.3551949], [126.9252847, 37.3551839], [126.9251803, 37.3551751], [126.9251099, 37.3551698], [126.9249968, 37.3551572], [126.9249728, 37.3551424]]}}, {"type": "Feature", "properties": {"kind": "corridor", "width": 3, "name": "", "source": "OSM way 468365883"}, "geometry": {"type": "LineString", "coordinates": [[126.9249616, 37.3554022], [126.9249189, 37.3554432], [126.9248479, 37.3554869]]}}, {"type": "Feature", "properties": {"kind": "corridor", "width": 3, "name": "", "source": "OSM way 468365884"}, "geometry": {"type": "LineString", "coordinates": [[126.9250525, 37.3554412], [126.9250247, 37.355533], [126.9249882, 37.355593], [126.9249747, 37.3556192], [126.9249825, 37.3557213], [126.9249778, 37.3557561], [126.9249671, 37.3557983], [126.9249188, 37.3558948], [126.9249088, 37.3560094], [126.9248229, 37.3561496], [126.9248174, 37.3562034]]}}, {"type": "Feature", "properties": {"kind": "corridor", "width": 3, "name": "", "source": "OSM way 468365885"}, "geometry": {"type": "LineString", "coordinates": [[126.925443, 37.3553323], [126.925496, 37.3553737], [126.9255442, 37.3553973], [126.9255119, 37.3554928], [126.9254696, 37.3555759], [126.9254257, 37.3556432], [126.9253863, 37.3556806], [126.9253384, 37.3557201], [126.9252677, 37.3557547], [126.9252427, 37.355759], [126.9250654, 37.3557835], [126.9249671, 37.3557983], [126.9248208, 37.355802], [126.9247261, 37.3557873]]}}, {"type": "Feature", "properties": {"kind": "corridor", "width": 3, "name": "", "source": "OSM way 468365886"}, "geometry": {"type": "LineString", "coordinates": [[126.9252181, 37.3554369], [126.9251825, 37.3555008], [126.925179, 37.3555607], [126.925216, 37.3556172], [126.9252479, 37.3556788], [126.9252427, 37.355759], [126.9252166, 37.355832], [126.9252083, 37.3558674], [126.9252446, 37.3562259]]}}, {"type": "Feature", "properties": {"kind": "corridor", "width": 3, "name": "", "source": "OSM way 473376465"}, "geometry": {"type": "LineString", "coordinates": [[126.9252083, 37.3558674], [126.9250503, 37.3560132], [126.924899, 37.3561548], [126.9248174, 37.3562034]]}}, {"type": "Feature", "properties": {"kind": "corridor", "width": 3, "name": "", "source": "OSM way 473376469"}, "geometry": {"type": "LineString", "coordinates": [[126.9255442, 37.3553973], [126.9256208, 37.3554057], [126.9256117, 37.3555139], [126.9255839, 37.355551], [126.9255618, 37.3557112], [126.9254582, 37.3558769], [126.9253449, 37.3560377], [126.9252944, 37.3561247], [126.9252603, 37.3561963], [126.9252446, 37.3562259], [126.9251518, 37.356428], [126.9250486, 37.3565197], [126.9249765, 37.3565761], [126.9249253, 37.3566904], [126.9248402, 37.3568125], [126.9247188, 37.3569545]]}}, {"type": "Feature", "properties": {"kind": "corridor", "width": 3, "name": "", "source": "OSM way 473376472"}, "geometry": {"type": "LineString", "coordinates": [[126.9254991, 37.3550904], [126.9255789, 37.3550616], [126.9256914, 37.355061], [126.9257752, 37.35508]]}}, {"type": "Feature", "properties": {"kind": "corridor", "width": 3, "name": "", "source": "OSM way 584794240"}, "geometry": {"type": "LineString", "coordinates": [[126.9245887, 37.3553959], [126.9246346, 37.3553125], [126.9246502, 37.3552459]]}}, {"type": "Feature", "properties": {"kind": "corridor", "width": 3, "name": "", "source": "OSM way 925376604"}, "geometry": {"type": "LineString", "coordinates": [[126.9247261, 37.3557873], [126.924542, 37.3557735], [126.9244226, 37.3557767], [126.9243301, 37.355781], [126.9242711, 37.3557703], [126.9241933, 37.3557799]]}}, {"type": "Feature", "properties": {"kind": "corridor", "width": 26, "name": "차없는거리(고산로)", "source": "OSM 고산로 635359835 를 부스 쪽으로 2.0m 옮긴 중심선. 통제구간 소방서사거리~8단지입구사거리(2026 리플렛). 폭 26m 는 위성 횡단보도 실측(±2m)"}, "geometry": {"type": "LineString", "coordinates": [[126.926989, 37.3535198], [126.9263758, 37.3542731], [126.9263038, 37.3543531], [126.9262478, 37.3544656], [126.9261691, 37.3546775], [126.9260518, 37.3550623], [126.9260375, 37.3551281], [126.9259781, 37.3554397], [126.9258909, 37.3558492], [126.9258036, 37.3560309], [126.9257248, 37.3561945], [126.9255275, 37.3565213], [126.9245494, 37.3577558], [126.9243948, 37.3579202]]}}, {"type": "Feature", "properties": {"kind": "corridor", "width": 4, "name": "고산로 보도(공원 쪽)", "source": "차도 가장자리 옆 인도. 위치·폭 4m 가정 2026-09-08"}, "geometry": {"type": "LineString", "coordinates": [[126.9268466, 37.3534466], [126.9262339, 37.3541994], [126.9261539, 37.3542901], [126.9260868, 37.3544234], [126.926005, 37.3546435], [126.9258867, 37.3550318], [126.92587, 37.3551074], [126.9258108, 37.3554182], [126.9257259, 37.3558184], [126.9256453, 37.3559828], [126.9255701, 37.3561395], [126.925382, 37.3564521], [126.9244069, 37.3576829], [126.924259, 37.3578395]]}}, {"type": "Feature", "properties": {"kind": "gate", "id": "g_fire", "name": "소방서사거리 입구(산본역·버스)", "share": 0.35}, "geometry": {"type": "Polygon", "coordinates": [[[126.9270693, 37.3534541], [126.9269097, 37.3536502], [126.9268718, 37.3536307], [126.9270314, 37.3534346], [126.9270693, 37.3534541]]]}}, {"type": "Feature", "properties": {"kind": "gate", "id": "g_suri", "name": "8단지입구·수리산역 입구", "share": 0.45}, "geometry": {"type": "Polygon", "coordinates": [[[126.9245212, 37.3578158], [126.9243452, 37.3580029], [126.924309, 37.3579813], [126.924485, 37.3577943], [126.9245212, 37.3578158]]]}}, {"type": "Feature", "properties": {"kind": "gate", "id": "g_park2", "name": "철쭉공원 남측(지하주차장)", "share": 0.1}, "geometry": {"type": "Polygon", "coordinates": [[[126.9257324, 37.3517783], [126.9258454, 37.3517783], [126.9258454, 37.3518143], [126.9257324, 37.3518143], [126.9257324, 37.3517783]]]}}, {"type": "Feature", "properties": {"kind": "stage", "id": "stage_main", "name": "특설무대(개막식)", "popularity": 2, "queueDir": [-0.8396, -0.5432]}, "geometry": {"type": "Polygon", "coordinates": [[[126.9269287, 37.35366], [126.926855, 37.3537505], [126.9267791, 37.3537114], [126.9268528, 37.3536209], [126.9269287, 37.35366]]]}}, {"type": "Feature", "properties": {"kind": "view", "id": "seats", "name": "관람석", "popularity": 4, "queueDir": [0, 0]}, "geometry": {"type": "Polygon", "coordinates": [[[126.9267861, 37.3538434], [126.9264178, 37.354296], [126.9263324, 37.354252], [126.9267007, 37.3537995], [126.9267861, 37.3538434]]]}}, {"type": "Feature", "properties": {"kind": "booth", "id": "b1", "name": "편의1 종합안내소", "cat": "편의", "popularity": 1, "servers": 1, "serviceSec": 30, "queueDir": [0.813, 0.5822]}, "geometry": {"type": "Polygon", "coordinates": [[[126.9262733, 37.3542326], [126.9262536, 37.3542545], [126.926226, 37.3542388], [126.9262457, 37.3542169], [126.9262733, 37.3542326]]]}}, {"type": "Feature", "properties": {"kind": "booth", "id": "b2", "name": "편의2 운영본부·휠체어 대여", "cat": "편의", "popularity": 1, "servers": 1, "serviceSec": 30, "queueDir": [0.813, 0.5822]}, "geometry": {"type": "Polygon", "coordinates": [[[126.9262503, 37.3542582], [126.9262305, 37.3542801], [126.926203, 37.3542644], [126.9262227, 37.3542425], [126.9262503, 37.3542582]]]}}, {"type": "Feature", "properties": {"kind": "booth", "id": "b3", "name": "편의3 의료소", "cat": "편의", "popularity": 1, "servers": 1, "serviceSec": 30, "queueDir": [0.813, 0.5822]}, "geometry": {"type": "Polygon", "coordinates": [[[126.9262273, 37.3542837], [126.9262075, 37.3543057], [126.92618, 37.35429], [126.9261997, 37.3542681], [126.9262273, 37.3542837]]]}}, {"type": "Feature", "properties": {"kind": "booth", "id": "b4", "name": "편의4 미아보호소(경찰)", "cat": "편의", "popularity": 1, "servers": 1, "serviceSec": 30, "queueDir": [0.9299, 0.3679]}, "geometry": {"type": "Polygon", "coordinates": [[[126.9261939, 37.3543298], [126.9261814, 37.3543548], [126.9261499, 37.3543449], [126.9261623, 37.3543199], [126.9261939, 37.3543298]]]}}, {"type": "Feature", "properties": {"kind": "booth", "id": "b5", "name": "체험 1", "cat": "철쭉마켓(체험)", "popularity": 3, "servers": 2, "serviceSec": 240, "queueDir": [-0.9299, -0.3679]}, "geometry": {"type": "Polygon", "coordinates": [[[126.9264002, 37.3544768], [126.9263877, 37.3545019], [126.9263562, 37.3544919], [126.9263687, 37.3544669], [126.9264002, 37.3544768]]]}}, {"type": "Feature", "properties": {"kind": "booth", "id": "b6", "name": "체험 2", "cat": "철쭉마켓(체험)", "popularity": 3, "servers": 2, "serviceSec": 240, "queueDir": [-0.9591, -0.2831]}, "geometry": {"type": "Polygon", "coordinates": [[[126.9263896, 37.3544961], [126.92638, 37.3545219], [126.9263475, 37.3545143], [126.9263571, 37.3544884], [126.9263896, 37.3544961]]]}}, {"type": "Feature", "properties": {"kind": "booth", "id": "b7", "name": "체험 3", "cat": "철쭉마켓(체험)", "popularity": 3, "servers": 2, "serviceSec": 240, "queueDir": [-0.9591, -0.2831]}, "geometry": {"type": "Polygon", "coordinates": [[[126.9263784, 37.3545262], [126.9263689, 37.3545521], [126.9263363, 37.3545444], [126.9263459, 37.3545186], [126.9263784, 37.3545262]]]}}, {"type": "Feature", "properties": {"kind": "booth", "id": "b8", "name": "체험 4", "cat": "철쭉마켓(체험)", "popularity": 3, "servers": 2, "serviceSec": 240, "queueDir": [-0.9591, -0.2831]}, "geometry": {"type": "Polygon", "coordinates": [[[126.9263673, 37.3545564], [126.9263577, 37.3545822], [126.9263251, 37.3545746], [126.9263347, 37.3545487], [126.9263673, 37.3545564]]]}}, {"type": "Feature", "properties": {"kind": "booth", "id": "b9", "name": "체험 5", "cat": "철쭉마켓(체험)", "popularity": 3, "servers": 2, "serviceSec": 240, "queueDir": [-0.9591, -0.2831]}, "geometry": {"type": "Polygon", "coordinates": [[[126.9263561, 37.3545865], [126.9263465, 37.3546124], [126.9263139, 37.3546047], [126.9263235, 37.3545789], [126.9263561, 37.3545865]]]}}, {"type": "Feature", "properties": {"kind": "booth", "id": "b10", "name": "체험 6", "cat": "철쭉마켓(체험)", "popularity": 3, "servers": 2, "serviceSec": 240, "queueDir": [-0.9591, -0.2831]}, "geometry": {"type": "Polygon", "coordinates": [[[126.9263449, 37.3546167], [126.9263353, 37.3546425], [126.9263027, 37.3546349], [126.9263123, 37.354609], [126.9263449, 37.3546167]]]}}, {"type": "Feature", "properties": {"kind": "booth", "id": "b11", "name": "체험 7", "cat": "철쭉마켓(체험)", "popularity": 3, "servers": 2, "serviceSec": 240, "queueDir": [-0.9591, -0.2831]}, "geometry": {"type": "Polygon", "coordinates": [[[126.9263337, 37.3546468], [126.9263241, 37.3546727], [126.9262915, 37.354665], [126.9263011, 37.3546392], [126.9263337, 37.3546468]]]}}, {"type": "Feature", "properties": {"kind": "booth", "id": "b12", "name": "체험 8", "cat": "철쭉마켓(체험)", "popularity": 3, "servers": 2, "serviceSec": 240, "queueDir": [-0.9591, -0.2831]}, "geometry": {"type": "Polygon", "coordinates": [[[126.9263225, 37.354677], [126.9263129, 37.3547028], [126.9262803, 37.3546952], [126.9262899, 37.3546694], [126.9263225, 37.354677]]]}}, {"type": "Feature", "properties": {"kind": "booth", "id": "b13", "name": "체험 9", "cat": "철쭉마켓(체험)", "popularity": 3, "servers": 2, "serviceSec": 240, "queueDir": [-0.9719, -0.2354]}, "geometry": {"type": "Polygon", "coordinates": [[[126.9263036, 37.3547321], [126.9262956, 37.3547583], [126.9262627, 37.3547519], [126.9262707, 37.3547257], [126.9263036, 37.3547321]]]}}, {"type": "Feature", "properties": {"kind": "booth", "id": "b14", "name": "체험 10", "cat": "철쭉마켓(체험)", "popularity": 3, "servers": 2, "serviceSec": 240, "queueDir": [-0.9719, -0.2354]}, "geometry": {"type": "Polygon", "coordinates": [[[126.9262943, 37.3547626], [126.9262863, 37.3547888], [126.9262534, 37.3547825], [126.9262613, 37.3547563], [126.9262943, 37.3547626]]]}}, {"type": "Feature", "properties": {"kind": "booth", "id": "b15", "name": "체험 11", "cat": "철쭉마켓(체험)", "popularity": 3, "servers": 2, "serviceSec": 240, "queueDir": [-0.9719, -0.2354]}, "geometry": {"type": "Polygon", "coordinates": [[[126.926285, 37.3547932], [126.926277, 37.3548194], [126.9262441, 37.354813], [126.926252, 37.3547869], [126.926285, 37.3547932]]]}}, {"type": "Feature", "properties": {"kind": "booth", "id": "b16", "name": "체험 12", "cat": "철쭉마켓(체험)", "popularity": 3, "servers": 2, "serviceSec": 240, "queueDir": [-0.9719, -0.2354]}, "geometry": {"type": "Polygon", "coordinates": [[[126.9262757, 37.3548238], [126.9262677, 37.3548499], [126.9262347, 37.3548436], [126.9262427, 37.3548174], [126.9262757, 37.3548238]]]}}, {"type": "Feature", "properties": {"kind": "booth", "id": "b17", "name": "체험 13", "cat": "철쭉마켓(체험)", "popularity": 3, "servers": 2, "serviceSec": 240, "queueDir": [-0.9719, -0.2354]}, "geometry": {"type": "Polygon", "coordinates": [[[126.9262664, 37.3548543], [126.9262584, 37.3548805], [126.9262254, 37.3548742], [126.9262334, 37.354848], [126.9262664, 37.3548543]]]}}, {"type": "Feature", "properties": {"kind": "booth", "id": "b18", "name": "체험 14", "cat": "철쭉마켓(체험)", "popularity": 3, "servers": 2, "serviceSec": 240, "queueDir": [-0.9719, -0.2354]}, "geometry": {"type": "Polygon", "coordinates": [[[126.926257, 37.3548849], [126.9262491, 37.3549111], [126.9262161, 37.3549047], [126.9262241, 37.3548785], [126.926257, 37.3548849]]]}}, {"type": "Feature", "properties": {"kind": "booth", "id": "b19", "name": "체험 15", "cat": "철쭉마켓(체험)", "popularity": 3, "servers": 2, "serviceSec": 240, "queueDir": [-0.9719, -0.2354]}, "geometry": {"type": "Polygon", "coordinates": [[[126.9262477, 37.3549154], [126.9262398, 37.3549416], [126.9262068, 37.3549353], [126.9262148, 37.3549091], [126.9262477, 37.3549154]]]}}, {"type": "Feature", "properties": {"kind": "booth", "id": "b20", "name": "체험 16", "cat": "철쭉마켓(체험)", "popularity": 3, "servers": 2, "serviceSec": 240, "queueDir": [-0.9719, -0.2354]}, "geometry": {"type": "Polygon", "coordinates": [[[126.9262384, 37.354946], [126.9262304, 37.3549722], [126.9261975, 37.3549658], [126.9262055, 37.3549396], [126.9262384, 37.354946]]]}}, {"type": "Feature", "properties": {"kind": "booth", "id": "b21", "name": "체험 17", "cat": "철쭉마켓(체험)", "popularity": 3, "servers": 2, "serviceSec": 240, "queueDir": [-0.9719, -0.2354]}, "geometry": {"type": "Polygon", "coordinates": [[[126.9262198, 37.3550071], [126.9262118, 37.3550333], [126.9261789, 37.3550269], [126.9261868, 37.3550008], [126.9262198, 37.3550071]]]}}, {"type": "Feature", "properties": {"kind": "booth", "id": "b22", "name": "체험 18", "cat": "철쭉마켓(체험)", "popularity": 3, "servers": 2, "serviceSec": 240, "queueDir": [-0.9719, -0.2354]}, "geometry": {"type": "Polygon", "coordinates": [[[126.9262105, 37.3550377], [126.9262025, 37.3550638], [126.9261695, 37.3550575], [126.9261775, 37.3550313], [126.9262105, 37.3550377]]]}}, {"type": "Feature", "properties": {"kind": "booth", "id": "b23", "name": "체험 19", "cat": "철쭉마켓(체험)", "popularity": 3, "servers": 2, "serviceSec": 240, "queueDir": [-0.9719, -0.2354]}, "geometry": {"type": "Polygon", "coordinates": [[[126.9262012, 37.3550682], [126.9261932, 37.3550944], [126.9261602, 37.3550881], [126.9261682, 37.3550619], [126.9262012, 37.3550682]]]}}, {"type": "Feature", "properties": {"kind": "booth", "id": "b24", "name": "체험 20", "cat": "철쭉마켓(체험)", "popularity": 3, "servers": 2, "serviceSec": 240, "queueDir": [-0.9854, -0.17]}, "geometry": {"type": "Polygon", "coordinates": [[[126.9261946, 37.3550913], [126.9261888, 37.3551178], [126.9261554, 37.3551132], [126.9261612, 37.3550867], [126.9261946, 37.3550913]]]}}, {"type": "Feature", "properties": {"kind": "booth", "id": "b25", "name": "체험 21", "cat": "철쭉마켓(체험)", "popularity": 3, "servers": 2, "serviceSec": 240, "queueDir": [-0.9854, -0.17]}, "geometry": {"type": "Polygon", "coordinates": [[[126.9261879, 37.3551222], [126.9261821, 37.3551488], [126.9261487, 37.3551442], [126.9261545, 37.3551177], [126.9261879, 37.3551222]]]}}, {"type": "Feature", "properties": {"kind": "booth", "id": "b26", "name": "체험 22", "cat": "철쭉마켓(체험)", "popularity": 3, "servers": 2, "serviceSec": 240, "queueDir": [-0.9887, -0.1499]}, "geometry": {"type": "Polygon", "coordinates": [[[126.9261818, 37.3551509], [126.9261767, 37.3551775], [126.9261432, 37.3551735], [126.9261483, 37.3551468], [126.9261818, 37.3551509]]]}}, {"type": "Feature", "properties": {"kind": "booth", "id": "b27", "name": "체험 23", "cat": "철쭉마켓(체험)", "popularity": 3, "servers": 2, "serviceSec": 240, "queueDir": [-0.9887, -0.1499]}, "geometry": {"type": "Polygon", "coordinates": [[[126.9261758, 37.355182], [126.9261708, 37.3552086], [126.9261372, 37.3552046], [126.9261423, 37.3551779], [126.9261758, 37.355182]]]}}, {"type": "Feature", "properties": {"kind": "booth", "id": "b28", "name": "체험 24", "cat": "철쭉마켓(체험)", "popularity": 3, "servers": 2, "serviceSec": 240, "queueDir": [-0.9887, -0.1499]}, "geometry": {"type": "Polygon", "coordinates": [[[126.9261699, 37.3552131], [126.9261648, 37.3552397], [126.9261313, 37.3552357], [126.9261364, 37.355209], [126.9261699, 37.3552131]]]}}, {"type": "Feature", "properties": {"kind": "booth", "id": "b29", "name": "체험 25", "cat": "철쭉마켓(체험)", "popularity": 3, "servers": 2, "serviceSec": 240, "queueDir": [-0.9887, -0.1499]}, "geometry": {"type": "Polygon", "coordinates": [[[126.9261581, 37.3552752], [126.926153, 37.3553019], [126.9261195, 37.3552978], [126.9261245, 37.3552712], [126.9261581, 37.3552752]]]}}, {"type": "Feature", "properties": {"kind": "booth", "id": "b30", "name": "체험 26", "cat": "철쭉마켓(체험)", "popularity": 3, "servers": 2, "serviceSec": 240, "queueDir": [-0.9887, -0.1499]}, "geometry": {"type": "Polygon", "coordinates": [[[126.9261521, 37.3553063], [126.9261471, 37.355333], [126.9261135, 37.3553289], [126.9261186, 37.3553023], [126.9261521, 37.3553063]]]}}, {"type": "Feature", "properties": {"kind": "booth", "id": "b31", "name": "체험 27", "cat": "철쭉마켓(체험)", "popularity": 3, "servers": 2, "serviceSec": 240, "queueDir": [-0.9887, -0.1499]}, "geometry": {"type": "Polygon", "coordinates": [[[126.9261462, 37.3553374], [126.9261411, 37.355364], [126.9261076, 37.35536], [126.9261127, 37.3553334], [126.9261462, 37.3553374]]]}}, {"type": "Feature", "properties": {"kind": "booth", "id": "b32", "name": "체험 28", "cat": "철쭉마켓(체험)", "popularity": 3, "servers": 2, "serviceSec": 240, "queueDir": [-0.9887, -0.1499]}, "geometry": {"type": "Polygon", "coordinates": [[[126.9261403, 37.3553685], [126.9261352, 37.3553951], [126.9261017, 37.3553911], [126.9261068, 37.3553644], [126.9261403, 37.3553685]]]}}, {"type": "Feature", "properties": {"kind": "booth", "id": "b33", "name": "체험 29", "cat": "철쭉마켓(체험)", "popularity": 3, "servers": 2, "serviceSec": 240, "queueDir": [-0.9887, -0.1499]}, "geometry": {"type": "Polygon", "coordinates": [[[126.9261344, 37.3553996], [126.9261293, 37.3554262], [126.9260958, 37.3554222], [126.9261008, 37.3553955], [126.9261344, 37.3553996]]]}}, {"type": "Feature", "properties": {"kind": "booth", "id": "b34", "name": "체험 30", "cat": "철쭉마켓(체험)", "popularity": 3, "servers": 2, "serviceSec": 240, "queueDir": [-0.9887, -0.1499]}, "geometry": {"type": "Polygon", "coordinates": [[[126.9261284, 37.3554307], [126.9261233, 37.3554573], [126.9260898, 37.3554533], [126.9260949, 37.3554266], [126.9261284, 37.3554307]]]}}, {"type": "Feature", "properties": {"kind": "booth", "id": "b35", "name": "한번더제작소", "cat": "체험", "popularity": 2, "servers": 2, "serviceSec": 180, "queueDir": [-0.986, -0.1669]}, "geometry": {"type": "Polygon", "coordinates": [[[126.9261126, 37.355508], [126.9261069, 37.3555346], [126.9260735, 37.3555301], [126.9260791, 37.3555035], [126.9261126, 37.355508]]]}}, {"type": "Feature", "properties": {"kind": "booth", "id": "b36", "name": "시정홍보 1", "cat": "시정홍보", "popularity": 1, "servers": 2, "serviceSec": 40, "queueDir": [-0.986, -0.1669]}, "geometry": {"type": "Polygon", "coordinates": [[[126.9261012, 37.3555611], [126.9260956, 37.3555877], [126.9260622, 37.3555832], [126.9260678, 37.3555566], [126.9261012, 37.3555611]]]}}, {"type": "Feature", "properties": {"kind": "booth", "id": "b37", "name": "시정홍보 2", "cat": "시정홍보", "popularity": 1, "servers": 2, "serviceSec": 40, "queueDir": [-0.986, -0.1669]}, "geometry": {"type": "Polygon", "coordinates": [[[126.926088, 37.3556231], [126.9260824, 37.3556497], [126.926049, 37.3556452], [126.9260546, 37.3556186], [126.926088, 37.3556231]]]}}, {"type": "Feature", "properties": {"kind": "booth", "id": "b38", "name": "시정홍보 3", "cat": "시정홍보", "popularity": 1, "servers": 2, "serviceSec": 40, "queueDir": [-0.986, -0.1669]}, "geometry": {"type": "Polygon", "coordinates": [[[126.9260814, 37.3556541], [126.9260758, 37.3556807], [126.9260424, 37.3556762], [126.926048, 37.3556496], [126.9260814, 37.3556541]]]}}, {"type": "Feature", "properties": {"kind": "booth", "id": "b39", "name": "시정홍보 4", "cat": "시정홍보", "popularity": 1, "servers": 2, "serviceSec": 40, "queueDir": [-0.986, -0.1669]}, "geometry": {"type": "Polygon", "coordinates": [[[126.9260748, 37.3556851], [126.9260692, 37.3557117], [126.9260358, 37.3557072], [126.9260414, 37.3556806], [126.9260748, 37.3556851]]]}}, {"type": "Feature", "properties": {"kind": "booth", "id": "b40", "name": "시정홍보 5", "cat": "시정홍보", "popularity": 1, "servers": 2, "serviceSec": 40, "queueDir": [-0.986, -0.1669]}, "geometry": {"type": "Polygon", "coordinates": [[[126.9260682, 37.3557161], [126.9260626, 37.3557427], [126.9260292, 37.3557382], [126.9260348, 37.3557116], [126.9260682, 37.3557161]]]}}, {"type": "Feature", "properties": {"kind": "booth", "id": "b41", "name": "시정홍보 6", "cat": "시정홍보", "popularity": 1, "servers": 2, "serviceSec": 40, "queueDir": [-0.986, -0.1669]}, "geometry": {"type": "Polygon", "coordinates": [[[126.9260616, 37.3557471], [126.926056, 37.3557737], [126.9260226, 37.3557692], [126.9260282, 37.3557426], [126.9260616, 37.3557471]]]}}, {"type": "Feature", "properties": {"kind": "booth", "id": "b42", "name": "시정홍보 7", "cat": "시정홍보", "popularity": 1, "servers": 2, "serviceSec": 40, "queueDir": [-0.986, -0.1669]}, "geometry": {"type": "Polygon", "coordinates": [[[126.926055, 37.3557781], [126.9260494, 37.3558047], [126.926016, 37.3558002], [126.9260216, 37.3557736], [126.926055, 37.3557781]]]}}, {"type": "Feature", "properties": {"kind": "booth", "id": "b43", "name": "시정홍보 8", "cat": "시정홍보", "popularity": 1, "servers": 2, "serviceSec": 40, "queueDir": [-0.986, -0.1669]}, "geometry": {"type": "Polygon", "coordinates": [[[126.9260484, 37.3558091], [126.9260428, 37.3558357], [126.9260094, 37.3558312], [126.926015, 37.3558046], [126.9260484, 37.3558091]]]}}, {"type": "Feature", "properties": {"kind": "booth", "id": "b44", "name": "시정홍보 9", "cat": "시정홍보", "popularity": 1, "servers": 2, "serviceSec": 40, "queueDir": [-0.986, -0.1669]}, "geometry": {"type": "Polygon", "coordinates": [[[126.9260418, 37.3558401], [126.9260362, 37.3558667], [126.9260028, 37.3558622], [126.9260084, 37.3558356], [126.9260418, 37.3558401]]]}}, {"type": "Feature", "properties": {"kind": "booth", "id": "b45", "name": "시정홍보 10", "cat": "시정홍보", "popularity": 1, "servers": 2, "serviceSec": 40, "queueDir": [-0.9342, -0.3567]}, "geometry": {"type": "Polygon", "coordinates": [[[126.9260129, 37.3559226], [126.9260008, 37.3559477], [126.9259692, 37.3559381], [126.9259813, 37.3559129], [126.9260129, 37.3559226]]]}}, {"type": "Feature", "properties": {"kind": "booth", "id": "b46", "name": "시정홍보 11", "cat": "시정홍보", "popularity": 1, "servers": 2, "serviceSec": 40, "queueDir": [-0.9342, -0.3567]}, "geometry": {"type": "Polygon", "coordinates": [[[126.9259988, 37.3559519], [126.9259867, 37.3559771], [126.925955, 37.3559675], [126.9259671, 37.3559423], [126.9259988, 37.3559519]]]}}, {"type": "Feature", "properties": {"kind": "booth", "id": "b47", "name": "시정홍보 12", "cat": "시정홍보", "popularity": 1, "servers": 2, "serviceSec": 40, "queueDir": [-0.9342, -0.3567]}, "geometry": {"type": "Polygon", "coordinates": [[[126.9259847, 37.3559813], [126.9259726, 37.3560065], [126.9259409, 37.3559969], [126.925953, 37.3559717], [126.9259847, 37.3559813]]]}}, {"type": "Feature", "properties": {"kind": "booth", "id": "b48", "name": "시정홍보 13", "cat": "시정홍보", "popularity": 1, "servers": 2, "serviceSec": 40, "queueDir": [-0.9342, -0.3567]}, "geometry": {"type": "Polygon", "coordinates": [[[126.9259706, 37.3560107], [126.9259585, 37.3560359], [126.9259268, 37.3560262], [126.9259389, 37.3560011], [126.9259706, 37.3560107]]]}}, {"type": "Feature", "properties": {"kind": "booth", "id": "b49", "name": "시정홍보 14", "cat": "시정홍보", "popularity": 1, "servers": 2, "serviceSec": 40, "queueDir": [-0.9342, -0.3567]}, "geometry": {"type": "Polygon", "coordinates": [[[126.9259565, 37.35604], [126.9259444, 37.3560652], [126.9259127, 37.3560556], [126.9259248, 37.3560304], [126.9259565, 37.35604]]]}}, {"type": "Feature", "properties": {"kind": "booth", "id": "b50", "name": "군포의 보물", "cat": "전시", "popularity": 2, "servers": 3, "serviceSec": 60, "queueDir": [-0.9339, -0.3574]}, "geometry": {"type": "Polygon", "coordinates": [[[126.9259262, 37.3561031], [126.9259141, 37.3561282], [126.9258824, 37.3561186], [126.9258945, 37.3560934], [126.9259262, 37.3561031]]]}}, {"type": "Feature", "properties": {"kind": "booth", "id": "b51", "name": "현대자동차 후원부스", "cat": "홍보", "popularity": 2, "servers": 2, "serviceSec": 90, "queueDir": [-0.9339, -0.3574]}, "geometry": {"type": "Polygon", "coordinates": [[[126.925904, 37.3561492], [126.9258797, 37.3561995], [126.9258481, 37.3561899], [126.9258723, 37.3561396], [126.925904, 37.3561492]]]}}, {"type": "Feature", "properties": {"kind": "toilet", "id": "t_road", "name": "화장실(도로)", "popularity": 2, "servers": 6, "serviceSec": 90, "queueDir": [-0.9339, -0.3574]}, "geometry": {"type": "Polygon", "coordinates": [[[126.9259317, 37.3560903], [126.9259115, 37.3561323], [126.9258851, 37.3561242], [126.9259053, 37.3560823], [126.9259317, 37.3560903]]]}}, {"type": "Feature", "properties": {"kind": "view", "id": "eat", "name": "취식공간", "popularity": 3, "queueDir": [0, 0]}, "geometry": {"type": "Polygon", "coordinates": [[[126.925789, 37.3561505], [126.9256521, 37.3563773], [126.925591, 37.3563539], [126.9257279, 37.3561272], [126.925789, 37.3561505]]]}}, {"type": "Feature", "properties": {"kind": "booth", "id": "b52", "name": "철쭉푸드 1", "cat": "먹거리", "popularity": 5, "servers": 2, "serviceSec": 90, "queueDir": [-0.8462, -0.5329]}, "geometry": {"type": "Polygon", "coordinates": [[[126.9256351, 37.3566046], [126.9256171, 37.3566274], [126.9255884, 37.3566131], [126.9256064, 37.3565903], [126.9256351, 37.3566046]]]}}, {"type": "Feature", "properties": {"kind": "booth", "id": "b53", "name": "철쭉푸드 2", "cat": "먹거리", "popularity": 5, "servers": 2, "serviceSec": 90, "queueDir": [-0.8462, -0.5329]}, "geometry": {"type": "Polygon", "coordinates": [[[126.925593, 37.3566578], [126.9255749, 37.3566806], [126.9255462, 37.3566663], [126.9255643, 37.3566435], [126.925593, 37.3566578]]]}}, {"type": "Feature", "properties": {"kind": "booth", "id": "b54", "name": "철쭉푸드 3", "cat": "먹거리", "popularity": 5, "servers": 2, "serviceSec": 90, "queueDir": [-0.8462, -0.5329]}, "geometry": {"type": "Polygon", "coordinates": [[[126.9255719, 37.3566844], [126.9255538, 37.3567072], [126.9255251, 37.3566929], [126.9255432, 37.3566701], [126.9255719, 37.3566844]]]}}, {"type": "Feature", "properties": {"kind": "booth", "id": "b55", "name": "철쭉푸드 4", "cat": "먹거리", "popularity": 5, "servers": 2, "serviceSec": 90, "queueDir": [-0.8462, -0.5329]}, "geometry": {"type": "Polygon", "coordinates": [[[126.9255508, 37.356711], [126.9255327, 37.3567338], [126.9255041, 37.3567195], [126.9255221, 37.3566967], [126.9255508, 37.356711]]]}}, {"type": "Feature", "properties": {"kind": "booth", "id": "b56", "name": "철쭉푸드 5", "cat": "먹거리", "popularity": 5, "servers": 2, "serviceSec": 90, "queueDir": [-0.8462, -0.5329]}, "geometry": {"type": "Polygon", "coordinates": [[[126.9255297, 37.3567376], [126.9255117, 37.3567604], [126.925483, 37.3567461], [126.925501, 37.3567233], [126.9255297, 37.3567376]]]}}, {"type": "Feature", "properties": {"kind": "booth", "id": "b57", "name": "철쭉푸드 6", "cat": "먹거리", "popularity": 5, "servers": 2, "serviceSec": 90, "queueDir": [-0.8462, -0.5329]}, "geometry": {"type": "Polygon", "coordinates": [[[126.9255087, 37.3567642], [126.9254906, 37.356787], [126.9254619, 37.3567727], [126.92548, 37.3567499], [126.9255087, 37.3567642]]]}}, {"type": "Feature", "properties": {"kind": "booth", "id": "b58", "name": "철쭉푸드 7", "cat": "먹거리", "popularity": 5, "servers": 2, "serviceSec": 90, "queueDir": [-0.8462, -0.5329]}, "geometry": {"type": "Polygon", "coordinates": [[[126.9254876, 37.3567908], [126.9254695, 37.3568136], [126.9254408, 37.3567993], [126.9254589, 37.3567765], [126.9254876, 37.3567908]]]}}, {"type": "Feature", "properties": {"kind": "booth", "id": "b59", "name": "철쭉푸드 8", "cat": "먹거리", "popularity": 5, "servers": 2, "serviceSec": 90, "queueDir": [-0.8462, -0.5329]}, "geometry": {"type": "Polygon", "coordinates": [[[126.9254665, 37.3568175], [126.9254484, 37.3568403], [126.9254197, 37.3568259], [126.9254378, 37.3568031], [126.9254665, 37.3568175]]]}}, {"type": "Feature", "properties": {"kind": "booth", "id": "b60", "name": "철쭉푸드 9", "cat": "먹거리", "popularity": 5, "servers": 2, "serviceSec": 90, "queueDir": [-0.8462, -0.5329]}, "geometry": {"type": "Polygon", "coordinates": [[[126.9254454, 37.3568441], [126.9254274, 37.3568669], [126.9253987, 37.3568525], [126.9254167, 37.3568297], [126.9254454, 37.3568441]]]}}, {"type": "Feature", "properties": {"kind": "booth", "id": "b61", "name": "철쭉푸드 10", "cat": "먹거리", "popularity": 5, "servers": 2, "serviceSec": 90, "queueDir": [-0.8462, -0.5329]}, "geometry": {"type": "Polygon", "coordinates": [[[126.9254033, 37.3568973], [126.9253852, 37.3569201], [126.9253565, 37.3569057], [126.9253746, 37.3568829], [126.9254033, 37.3568973]]]}}, {"type": "Feature", "properties": {"kind": "booth", "id": "b62", "name": "철쭉푸드 11", "cat": "먹거리", "popularity": 5, "servers": 2, "serviceSec": 90, "queueDir": [-0.8462, -0.5329]}, "geometry": {"type": "Polygon", "coordinates": [[[126.9253822, 37.3569239], [126.9253641, 37.3569467], [126.9253354, 37.3569323], [126.9253535, 37.3569095], [126.9253822, 37.3569239]]]}}, {"type": "Feature", "properties": {"kind": "booth", "id": "b63", "name": "철쭉푸드 12", "cat": "먹거리", "popularity": 5, "servers": 2, "serviceSec": 90, "queueDir": [-0.8462, -0.5329]}, "geometry": {"type": "Polygon", "coordinates": [[[126.9253611, 37.3569505], [126.925343, 37.3569733], [126.9253143, 37.3569589], [126.9253324, 37.3569361], [126.9253611, 37.3569505]]]}}, {"type": "Feature", "properties": {"kind": "booth", "id": "b64", "name": "철쭉푸드 13", "cat": "먹거리", "popularity": 5, "servers": 2, "serviceSec": 90, "queueDir": [-0.8462, -0.5329]}, "geometry": {"type": "Polygon", "coordinates": [[[126.92534, 37.3569771], [126.925322, 37.3569999], [126.9252933, 37.3569855], [126.9253113, 37.3569627], [126.92534, 37.3569771]]]}}, {"type": "Feature", "properties": {"kind": "booth", "id": "b65", "name": "철쭉푸드 14", "cat": "먹거리", "popularity": 5, "servers": 2, "serviceSec": 90, "queueDir": [-0.8462, -0.5329]}, "geometry": {"type": "Polygon", "coordinates": [[[126.9253189, 37.3570037], [126.9253009, 37.3570265], [126.9252722, 37.3570121], [126.9252903, 37.3569893], [126.9253189, 37.3570037]]]}}, {"type": "Feature", "properties": {"kind": "booth", "id": "b66", "name": "철쭉푸드 15", "cat": "먹거리", "popularity": 5, "servers": 2, "serviceSec": 90, "queueDir": [-0.8462, -0.5329]}, "geometry": {"type": "Polygon", "coordinates": [[[126.9252979, 37.3570303], [126.9252798, 37.3570531], [126.9252511, 37.3570387], [126.9252692, 37.3570159], [126.9252979, 37.3570303]]]}}, {"type": "Feature", "properties": {"kind": "booth", "id": "b67", "name": "철쭉푸드 16", "cat": "먹거리", "popularity": 5, "servers": 2, "serviceSec": 90, "queueDir": [-0.8462, -0.5329]}, "geometry": {"type": "Polygon", "coordinates": [[[126.9252768, 37.3570569], [126.9252587, 37.3570797], [126.92523, 37.3570653], [126.9252481, 37.3570425], [126.9252768, 37.3570569]]]}}, {"type": "Feature", "properties": {"kind": "booth", "id": "b68", "name": "철쭉푸드 17", "cat": "먹거리", "popularity": 5, "servers": 2, "serviceSec": 90, "queueDir": [-0.8462, -0.5329]}, "geometry": {"type": "Polygon", "coordinates": [[[126.9252557, 37.3570835], [126.9252376, 37.3571063], [126.925209, 37.3570919], [126.925227, 37.3570691], [126.9252557, 37.3570835]]]}}, {"type": "Feature", "properties": {"kind": "booth", "id": "b69", "name": "푸드트럭 1", "cat": "푸드트럭", "popularity": 4, "servers": 1, "serviceSec": 120, "queueDir": [-0.8462, -0.5329]}, "geometry": {"type": "Polygon", "coordinates": [[[126.9251886, 37.357164], [126.9251615, 37.3571982], [126.9251376, 37.3571863], [126.9251647, 37.357152], [126.9251886, 37.357164]]]}}, {"type": "Feature", "properties": {"kind": "booth", "id": "b70", "name": "푸드트럭 2", "cat": "푸드트럭", "popularity": 4, "servers": 1, "serviceSec": 120, "queueDir": [-0.8462, -0.5329]}, "geometry": {"type": "Polygon", "coordinates": [[[126.9251585, 37.357202], [126.9251314, 37.3572362], [126.9251075, 37.3572243], [126.9251346, 37.3571901], [126.9251585, 37.357202]]]}}, {"type": "Feature", "properties": {"kind": "booth", "id": "b71", "name": "푸드트럭 3", "cat": "푸드트럭", "popularity": 4, "servers": 1, "serviceSec": 120, "queueDir": [-0.8462, -0.5329]}, "geometry": {"type": "Polygon", "coordinates": [[[126.9251284, 37.35724], [126.9251013, 37.3572742], [126.9250773, 37.3572623], [126.9251044, 37.3572281], [126.9251284, 37.35724]]]}}, {"type": "Feature", "properties": {"kind": "booth", "id": "b72", "name": "푸드트럭 4", "cat": "푸드트럭", "popularity": 4, "servers": 1, "serviceSec": 120, "queueDir": [-0.8462, -0.5329]}, "geometry": {"type": "Polygon", "coordinates": [[[126.9250982, 37.357278], [126.9250711, 37.3573122], [126.9250472, 37.3573003], [126.9250743, 37.3572661], [126.9250982, 37.357278]]]}}, {"type": "Feature", "properties": {"kind": "booth", "id": "b73", "name": "푸드트럭 5", "cat": "푸드트럭", "popularity": 4, "servers": 1, "serviceSec": 120, "queueDir": [-0.8462, -0.5329]}, "geometry": {"type": "Polygon", "coordinates": [[[126.9250681, 37.357316], [126.925041, 37.3573502], [126.9250171, 37.3573383], [126.9250442, 37.3573041], [126.9250681, 37.357316]]]}}, {"type": "Feature", "properties": {"kind": "booth", "id": "b74", "name": "푸드트럭 6", "cat": "푸드트럭", "popularity": 4, "servers": 1, "serviceSec": 120, "queueDir": [-0.8462, -0.5329]}, "geometry": {"type": "Polygon", "coordinates": [[[126.925038, 37.357354], [126.9250109, 37.3573883], [126.924987, 37.3573763], [126.9250141, 37.3573421], [126.925038, 37.357354]]]}}, {"type": "Feature", "properties": {"kind": "booth", "id": "b75", "name": "푸드트럭 7", "cat": "푸드트럭", "popularity": 4, "servers": 1, "serviceSec": 120, "queueDir": [-0.8462, -0.5329]}, "geometry": {"type": "Polygon", "coordinates": [[[126.9250079, 37.3573921], [126.9249808, 37.3574263], [126.9249569, 37.3574143], [126.924984, 37.3573801], [126.9250079, 37.3573921]]]}}, {"type": "Feature", "properties": {"kind": "booth", "id": "b76", "name": "푸드트럭 8", "cat": "푸드트럭", "popularity": 4, "servers": 1, "serviceSec": 120, "queueDir": [-0.8462, -0.5329]}, "geometry": {"type": "Polygon", "coordinates": [[[126.9249778, 37.3574301], [126.9249507, 37.3574643], [126.9249268, 37.3574523], [126.9249539, 37.3574181], [126.9249778, 37.3574301]]]}}, {"type": "Feature", "properties": {"kind": "booth", "id": "b77", "name": "푸드트럭 9", "cat": "푸드트럭", "popularity": 4, "servers": 1, "serviceSec": 120, "queueDir": [-0.8462, -0.5329]}, "geometry": {"type": "Polygon", "coordinates": [[[126.9249266, 37.3574947], [126.9248995, 37.3575289], [126.9248756, 37.3575169], [126.9249027, 37.3574827], [126.9249266, 37.3574947]]]}}, {"type": "Feature", "properties": {"kind": "booth", "id": "b78", "name": "푸드트럭 10", "cat": "푸드트럭", "popularity": 4, "servers": 1, "serviceSec": 120, "queueDir": [-0.8462, -0.5329]}, "geometry": {"type": "Polygon", "coordinates": [[[126.9248965, 37.3575327], [126.9248694, 37.3575669], [126.9248455, 37.3575549], [126.9248726, 37.3575207], [126.9248965, 37.3575327]]]}}, {"type": "Feature", "properties": {"kind": "gate", "id": "g_dojang", "name": "도장중 골목(임시주차장)", "share": 0.1, "source": "위치 가정 — 부스 틈 252m"}, "geometry": {"type": "Polygon", "coordinates": [[[126.9261615, 37.3556011], [126.9261558, 37.3556277], [126.926089, 37.3556187], [126.9260946, 37.3555921], [126.9261615, 37.3556011]]]}}, {"type": "Feature", "properties": {"kind": "corridor", "width": 3, "name": "", "source": "골목 연결 가정"}, "geometry": {"type": "LineString", "coordinates": [[126.9261587, 37.3556144], [126.925947, 37.3555859]]}}, {"type": "Feature", "properties": {"kind": "stage", "id": "stage_park", "name": "철쭉동산무대(철쭉스테이지)", "popularity": 3, "queueDir": [0.8396, 0.5432]}, "geometry": {"type": "Polygon", "coordinates": [[[126.9263779, 37.3538902], [126.9263042, 37.3539807], [126.9262283, 37.3539417], [126.926302, 37.3538512], [126.9263779, 37.3538902]]]}}, {"type": "Feature", "properties": {"kind": "view", "id": "lawn", "name": "동산 무대 앞 관람", "popularity": 3, "queueDir": [0, 0]}, "geometry": {"type": "Polygon", "coordinates": [[[126.9265704, 37.353786], [126.9262635, 37.3541631], [126.9261876, 37.3541241], [126.9264945, 37.3537469], [126.9265704, 37.353786]]]}}, {"type": "Feature", "properties": {"kind": "corridor", "width": 10, "name": "", "source": "무대 앞 광장 가정"}, "geometry": {"type": "LineString", "coordinates": [[126.9264359, 37.3539843], [126.926379, 37.353955], [126.9263031, 37.353916]]}}, {"type": "Feature", "properties": {"kind": "toilet", "id": "t_park", "name": "화장실(동산)", "popularity": 2, "servers": 6, "serviceSec": 90, "source": "OSM 474632280"}, "geometry": {"type": "Polygon", "coordinates": [[[126.9258117, 37.3542588], [126.9258683, 37.3542588], [126.9258683, 37.3542812], [126.9258117, 37.3542812], [126.9258117, 37.3542588]]]}}, {"type": "Feature", "properties": {"kind": "booth", "id": "b79", "name": "공원 철쭉푸드 1", "cat": "먹거리", "popularity": 5, "servers": 2, "serviceSec": 90, "queueDir": [-0.1697, 0.9855], "source": "OSM way 474632279 산책로 양옆 3.5m — 위치 가정 2026-09-08"}, "geometry": {"type": "Polygon", "coordinates": [[[126.9257555, 37.3541321], [126.925722, 37.3541275], [126.9257278, 37.3541009], [126.9257612, 37.3541055], [126.9257555, 37.3541321]]]}}, {"type": "Feature", "properties": {"kind": "booth", "id": "b80", "name": "공원 철쭉푸드 2", "cat": "먹거리", "popularity": 5, "servers": 2, "serviceSec": 90, "queueDir": [-0.4163, 0.9092], "source": "OSM way 474632279 산책로 양옆 3.5m — 위치 가정 2026-09-08"}, "geometry": {"type": "Polygon", "coordinates": [[[126.9257208, 37.3541313], [126.92569, 37.3541201], [126.9257041, 37.3540956], [126.9257349, 37.3541068], [126.9257208, 37.3541313]]]}}, {"type": "Feature", "properties": {"kind": "booth", "id": "b81", "name": "공원 철쭉푸드 3", "cat": "먹거리", "popularity": 5, "servers": 2, "serviceSec": 90, "queueDir": [-0.4163, 0.9092], "source": "OSM way 474632279 산책로 양옆 3.5m — 위치 가정 2026-09-08"}, "geometry": {"type": "Polygon", "coordinates": [[[126.9256848, 37.3541182], [126.925654, 37.354107], [126.9256681, 37.3540825], [126.9256989, 37.3540937], [126.9256848, 37.3541182]]]}}, {"type": "Feature", "properties": {"kind": "booth", "id": "b82", "name": "공원 철쭉푸드 4", "cat": "먹거리", "popularity": 5, "servers": 2, "serviceSec": 90, "queueDir": [-0.6583, 0.7528], "source": "OSM way 474632279 산책로 양옆 3.5m — 위치 가정 2026-09-08"}, "geometry": {"type": "Polygon", "coordinates": [[[126.9256531, 37.3541095], [126.9256275, 37.3540918], [126.9256499, 37.3540715], [126.9256754, 37.3540892], [126.9256531, 37.3541095]]]}}, {"type": "Feature", "properties": {"kind": "booth", "id": "b83", "name": "공원 철쭉푸드 5", "cat": "먹거리", "popularity": 5, "servers": 2, "serviceSec": 90, "queueDir": [-0.6583, 0.7528], "source": "OSM way 474632279 산책로 양옆 3.5m — 위치 가정 2026-09-08"}, "geometry": {"type": "Polygon", "coordinates": [[[126.9256233, 37.3540888], [126.9255978, 37.3540711], [126.9256201, 37.3540508], [126.9256456, 37.3540685], [126.9256233, 37.3540888]]]}}, {"type": "Feature", "properties": {"kind": "booth", "id": "b84", "name": "공원 철쭉푸드 6", "cat": "먹거리", "popularity": 5, "servers": 2, "serviceSec": 90, "queueDir": [-0.6583, 0.7528], "source": "OSM way 474632279 산책로 양옆 3.5m — 위치 가정 2026-09-08"}, "geometry": {"type": "Polygon", "coordinates": [[[126.9255935, 37.3540681], [126.925568, 37.3540504], [126.9255903, 37.3540301], [126.9256158, 37.3540478], [126.9255935, 37.3540681]]]}}, {"type": "Feature", "properties": {"kind": "booth", "id": "b85", "name": "공원 철쭉푸드 7", "cat": "먹거리", "popularity": 5, "servers": 2, "serviceSec": 90, "queueDir": [-0.6583, 0.7528], "source": "OSM way 474632279 산책로 양옆 3.5m — 위치 가정 2026-09-08"}, "geometry": {"type": "Polygon", "coordinates": [[[126.9255637, 37.3540474], [126.9255382, 37.3540297], [126.9255605, 37.3540094], [126.9255861, 37.3540271], [126.9255637, 37.3540474]]]}}, {"type": "Feature", "properties": {"kind": "booth", "id": "b86", "name": "공원 철쭉푸드 8", "cat": "먹거리", "popularity": 5, "servers": 2, "serviceSec": 90, "queueDir": [-0.6583, 0.7528], "source": "OSM way 474632279 산책로 양옆 3.5m — 위치 가정 2026-09-08"}, "geometry": {"type": "Polygon", "coordinates": [[[126.925534, 37.3540267], [126.9255084, 37.354009], [126.9255308, 37.3539887], [126.9255563, 37.3540064], [126.925534, 37.3540267]]]}}, {"type": "Feature", "properties": {"kind": "booth", "id": "b87", "name": "공원 철쭉푸드 9", "cat": "먹거리", "popularity": 5, "servers": 2, "serviceSec": 90, "queueDir": [-0.9974, 0.0724], "source": "OSM way 474632279 산책로 양옆 3.5m — 위치 가정 2026-09-08"}, "geometry": {"type": "Polygon", "coordinates": [[[126.9255126, 37.354018], [126.9255101, 37.3539911], [126.9255439, 37.3539891], [126.9255464, 37.354016], [126.9255126, 37.354018]]]}}, {"type": "Feature", "properties": {"kind": "booth", "id": "b88", "name": "공원 철쭉푸드 10", "cat": "먹거리", "popularity": 5, "servers": 2, "serviceSec": 90, "queueDir": [-0.9974, 0.0724], "source": "OSM way 474632279 산책로 양옆 3.5m — 위치 가정 2026-09-08"}, "geometry": {"type": "Polygon", "coordinates": [[[126.9255097, 37.3539866], [126.9255072, 37.3539597], [126.9255411, 37.3539578], [126.9255435, 37.3539847], [126.9255097, 37.3539866]]]}}, {"type": "Feature", "properties": {"kind": "booth", "id": "b89", "name": "철쭉마켓 판매 1", "cat": "판매", "popularity": 2, "servers": 2, "serviceSec": 60, "queueDir": [0.1697, -0.9855], "source": "OSM way 474632279 산책로 양옆 3.5m — 위치 가정 2026-09-08"}, "geometry": {"type": "Polygon", "coordinates": [[[126.9257708, 37.3540612], [126.9257374, 37.3540567], [126.9257431, 37.3540301], [126.9257765, 37.3540347], [126.9257708, 37.3540612]]]}}, {"type": "Feature", "properties": {"kind": "booth", "id": "b90", "name": "철쭉마켓 판매 2", "cat": "판매", "popularity": 2, "servers": 2, "serviceSec": 60, "queueDir": [0.4163, -0.9092], "source": "OSM way 474632279 산책로 양옆 3.5m — 위치 가정 2026-09-08"}, "geometry": {"type": "Polygon", "coordinates": [[[126.9257584, 37.354066], [126.9257276, 37.3540548], [126.9257417, 37.3540303], [126.9257725, 37.3540415], [126.9257584, 37.354066]]]}}, {"type": "Feature", "properties": {"kind": "booth", "id": "b91", "name": "철쭉마켓 판매 3", "cat": "판매", "popularity": 2, "servers": 2, "serviceSec": 60, "queueDir": [0.4163, -0.9092], "source": "OSM way 474632279 산책로 양옆 3.5m — 위치 가정 2026-09-08"}, "geometry": {"type": "Polygon", "coordinates": [[[126.9257225, 37.3540529], [126.9256916, 37.3540417], [126.9257057, 37.3540172], [126.9257366, 37.3540284], [126.9257225, 37.3540529]]]}}, {"type": "Feature", "properties": {"kind": "booth", "id": "b92", "name": "철쭉마켓 판매 4", "cat": "판매", "popularity": 2, "servers": 2, "serviceSec": 60, "queueDir": [0.6583, -0.7528], "source": "OSM way 474632279 산책로 양옆 3.5m — 위치 가정 2026-09-08"}, "geometry": {"type": "Polygon", "coordinates": [[[126.9257126, 37.3540554], [126.9256871, 37.3540377], [126.9257094, 37.3540174], [126.9257349, 37.3540351], [126.9257126, 37.3540554]]]}}, {"type": "Feature", "properties": {"kind": "booth", "id": "b93", "name": "철쭉마켓 판매 5", "cat": "판매", "popularity": 2, "servers": 2, "serviceSec": 60, "queueDir": [0.6583, -0.7528], "source": "OSM way 474632279 산책로 양옆 3.5m — 위치 가정 2026-09-08"}, "geometry": {"type": "Polygon", "coordinates": [[[126.9256828, 37.3540347], [126.9256573, 37.354017], [126.9256796, 37.3539967], [126.9257051, 37.3540144], [126.9256828, 37.3540347]]]}}, {"type": "Feature", "properties": {"kind": "booth", "id": "b94", "name": "철쭉마켓 판매 6", "cat": "판매", "popularity": 2, "servers": 2, "serviceSec": 60, "queueDir": [0.6583, -0.7528], "source": "OSM way 474632279 산책로 양옆 3.5m — 위치 가정 2026-09-08"}, "geometry": {"type": "Polygon", "coordinates": [[[126.925653, 37.354014], [126.9256275, 37.3539963], [126.9256498, 37.353976], [126.9256753, 37.3539937], [126.925653, 37.354014]]]}}, {"type": "Feature", "properties": {"kind": "booth", "id": "b95", "name": "철쭉마켓 판매 7", "cat": "판매", "popularity": 2, "servers": 2, "serviceSec": 60, "queueDir": [0.6583, -0.7528], "source": "OSM way 474632279 산책로 양옆 3.5m — 위치 가정 2026-09-08"}, "geometry": {"type": "Polygon", "coordinates": [[[126.9256232, 37.3539933], [126.9255977, 37.3539756], [126.92562, 37.3539553], [126.9256456, 37.353973], [126.9256232, 37.3539933]]]}}, {"type": "Feature", "properties": {"kind": "booth", "id": "b96", "name": "철쭉마켓 판매 8", "cat": "판매", "popularity": 2, "servers": 2, "serviceSec": 60, "queueDir": [0.6583, -0.7528], "source": "OSM way 474632279 산책로 양옆 3.5m — 위치 가정 2026-09-08"}, "geometry": {"type": "Polygon", "coordinates": [[[126.9255935, 37.3539726], [126.925568, 37.3539549], [126.9255903, 37.3539346], [126.9256158, 37.3539523], [126.9255935, 37.3539726]]]}}, {"type": "Feature", "properties": {"kind": "booth", "id": "b97", "name": "철쭉마켓 판매 9", "cat": "판매", "popularity": 2, "servers": 2, "serviceSec": 60, "queueDir": [0.9974, -0.0724], "source": "OSM way 474632279 산책로 양옆 3.5m — 위치 가정 2026-09-08"}, "geometry": {"type": "Polygon", "coordinates": [[[126.9256027, 37.3540128], [126.9256003, 37.3539859], [126.9256341, 37.3539839], [126.9256366, 37.3540108], [126.9256027, 37.3540128]]]}}, {"type": "Feature", "properties": {"kind": "booth", "id": "b98", "name": "철쭉마켓 판매 10", "cat": "판매", "popularity": 2, "servers": 2, "serviceSec": 60, "queueDir": [0.9974, -0.0724], "source": "OSM way 474632279 산책로 양옆 3.5m — 위치 가정 2026-09-08"}, "geometry": {"type": "Polygon", "coordinates": [[[126.9255999, 37.3539814], [126.9255974, 37.3539545], [126.9256312, 37.3539526], [126.9256337, 37.3539794], [126.9255999, 37.3539814]]]}}, {"type": "Feature", "properties": {"kind": "booth", "id": "b99", "name": "철쭉마켓 판매 11", "cat": "판매", "popularity": 2, "servers": 2, "serviceSec": 60, "queueDir": [0.7421, -0.6702], "source": "OSM way 474632279 산책로 양옆 3.5m — 위치 가정 2026-09-08"}, "geometry": {"type": "Polygon", "coordinates": [[[126.9255665, 37.3538969], [126.9255437, 37.3538769], [126.9255689, 37.3538589], [126.9255916, 37.3538789], [126.9255665, 37.3538969]]]}}, {"type": "Feature", "properties": {"kind": "booth", "id": "b100", "name": "철쭉마켓 판매 12", "cat": "판매", "popularity": 2, "servers": 2, "serviceSec": 60, "queueDir": [0.7421, -0.6702], "source": "OSM way 474632279 산책로 양옆 3.5m — 위치 가정 2026-09-08"}, "geometry": {"type": "Polygon", "coordinates": [[[126.92554, 37.3538736], [126.9255172, 37.3538536], [126.9255424, 37.3538355], [126.9255651, 37.3538555], [126.92554, 37.3538736]]]}}, {"type": "Feature", "properties": {"kind": "booth", "id": "b101", "name": "철쭉마켓 판매 13", "cat": "판매", "popularity": 2, "servers": 2, "serviceSec": 60, "queueDir": [0.7421, -0.6702], "source": "OSM way 474632279 산책로 양옆 3.5m — 위치 가정 2026-09-08"}, "geometry": {"type": "Polygon", "coordinates": [[[126.9255134, 37.3538502], [126.9254907, 37.3538302], [126.9255159, 37.3538122], [126.9255386, 37.3538322], [126.9255134, 37.3538502]]]}}, {"type": "Feature", "properties": {"kind": "booth", "id": "b102", "name": "철쭉마켓 판매 14", "cat": "판매", "popularity": 2, "servers": 2, "serviceSec": 60, "queueDir": [0.8412, -0.5408], "source": "OSM way 474632279 산책로 양옆 3.5m — 위치 가정 2026-09-08"}, "geometry": {"type": "Polygon", "coordinates": [[[126.9254994, 37.3538378], [126.925481, 37.3538151], [126.9255095, 37.3538006], [126.9255279, 37.3538232], [126.9254994, 37.3538378]]]}}, {"type": "Feature", "properties": {"kind": "booth", "id": "b103", "name": "철쭉마켓 판매 15", "cat": "판매", "popularity": 2, "servers": 2, "serviceSec": 60, "queueDir": [0.8412, -0.5408], "source": "OSM way 474632279 산책로 양옆 3.5m — 위치 가정 2026-09-08"}, "geometry": {"type": "Polygon", "coordinates": [[[126.925478, 37.3538114], [126.9254596, 37.3537887], [126.9254881, 37.3537741], [126.9255065, 37.3537968], [126.925478, 37.3538114]]]}}, {"type": "Feature", "properties": {"kind": "booth", "id": "b104", "name": "철쭉마켓 판매 16", "cat": "판매", "popularity": 2, "servers": 2, "serviceSec": 60, "queueDir": [0.9759, 0.2182], "source": "OSM way 474632279 산책로 양옆 3.5m — 위치 가정 2026-09-08"}, "geometry": {"type": "Polygon", "coordinates": [[[126.9254714, 37.3538531], [126.9254788, 37.3538268], [126.9255118, 37.3538327], [126.9255045, 37.353859], [126.9254714, 37.3538531]]]}}, {"type": "Feature", "properties": {"kind": "booth", "id": "b105", "name": "철쭉마켓 판매 17", "cat": "판매", "popularity": 2, "servers": 2, "serviceSec": 60, "queueDir": [0.9759, 0.2182], "source": "OSM way 474632279 산책로 양옆 3.5m — 위치 가정 2026-09-08"}, "geometry": {"type": "Polygon", "coordinates": [[[126.92548, 37.3538225], [126.9254874, 37.3537962], [126.9255205, 37.353802], [126.9255131, 37.3538283], [126.92548, 37.3538225]]]}}, {"type": "Feature", "properties": {"kind": "booth", "id": "b106", "name": "철쭉마켓 판매 18", "cat": "판매", "popularity": 2, "servers": 2, "serviceSec": 60, "queueDir": [0.9759, 0.2182], "source": "OSM way 474632279 산책로 양옆 3.5m — 위치 가정 2026-09-08"}, "geometry": {"type": "Polygon", "coordinates": [[[126.9254886, 37.3537918], [126.925496, 37.3537655], [126.9255291, 37.3537714], [126.9255217, 37.3537977], [126.9254886, 37.3537918]]]}}, {"type": "Feature", "properties": {"kind": "booth", "id": "b107", "name": "철쭉마켓 판매 19", "cat": "판매", "popularity": 2, "servers": 2, "serviceSec": 60, "queueDir": [0.9759, 0.2182], "source": "OSM way 474632279 산책로 양옆 3.5m — 위치 가정 2026-09-08"}, "geometry": {"type": "Polygon", "coordinates": [[[126.9254973, 37.3537611], [126.9255047, 37.3537348], [126.9255377, 37.3537407], [126.9255303, 37.353767], [126.9254973, 37.3537611]]]}}, {"type": "Feature", "properties": {"kind": "booth", "id": "b108", "name": "특화상품 1", "cat": "판매", "popularity": 2, "servers": 2, "serviceSec": 60, "queueDir": [-0.7421, 0.6702], "source": "OSM way 474632279 산책로 양옆 3.5m — 위치 가정 2026-09-08"}, "geometry": {"type": "Polygon", "coordinates": [[[126.9254615, 37.3539117], [126.9254388, 37.3538917], [126.9254639, 37.3538737], [126.9254867, 37.3538937], [126.9254615, 37.3539117]]]}}, {"type": "Feature", "properties": {"kind": "booth", "id": "b109", "name": "특화상품 2", "cat": "판매", "popularity": 2, "servers": 2, "serviceSec": 60, "queueDir": [-0.8412, 0.5408], "source": "OSM way 474632279 산책로 양옆 3.5m — 위치 가정 2026-09-08"}, "geometry": {"type": "Polygon", "coordinates": [[[126.9254355, 37.3538918], [126.9254172, 37.3538691], [126.9254457, 37.3538545], [126.925464, 37.3538772], [126.9254355, 37.3538918]]]}}, {"type": "Feature", "properties": {"kind": "booth", "id": "b110", "name": "특화상품 3", "cat": "판매", "popularity": 2, "servers": 2, "serviceSec": 60, "queueDir": [-0.8412, 0.5408], "source": "OSM way 474632279 산책로 양옆 3.5m — 위치 가정 2026-09-08"}, "geometry": {"type": "Polygon", "coordinates": [[[126.9254141, 37.3538653], [126.9253958, 37.3538427], [126.9254243, 37.3538281], [126.9254427, 37.3538508], [126.9254141, 37.3538653]]]}}, {"type": "Feature", "properties": {"kind": "booth", "id": "b111", "name": "emart산본점 후원", "cat": "판매", "popularity": 2, "servers": 2, "serviceSec": 60, "queueDir": [-0.8412, 0.5408], "source": "OSM way 474632279 산책로 양옆 3.5m — 위치 가정 2026-09-08"}, "geometry": {"type": "Polygon", "coordinates": [[[126.9253927, 37.3538389], [126.9253744, 37.3538162], [126.9254029, 37.3538016], [126.9254213, 37.3538243], [126.9253927, 37.3538389]]]}}, {"type": "Feature", "properties": {"kind": "booth", "id": "b112", "name": "사진촬영대회 접수", "cat": "체험", "popularity": 1, "servers": 1, "serviceSec": 60, "queueDir": [-0.9759, -0.2182], "source": "OSM way 474632279 산책로 양옆 3.5m — 위치 가정 2026-09-08"}, "geometry": {"type": "Polygon", "coordinates": [[[126.9253942, 37.353798], [126.9254016, 37.3537717], [126.9254347, 37.3537776], [126.9254273, 37.3538039], [126.9253942, 37.353798]]]}}, {"type": "Feature", "properties": {"kind": "booth", "id": "b113", "name": "고향 사진展", "cat": "전시", "popularity": 2, "servers": 4, "serviceSec": 120, "queueDir": [0.8814, -0.4724], "source": "OSM way 474632279 산책로 양옆 3.5m — 위치 가정 2026-09-08"}, "geometry": {"type": "Polygon", "coordinates": [[[126.9254782, 37.3536532], [126.9254355, 37.3535899], [126.9254654, 37.3535772], [126.9255081, 37.3536405], [126.9254782, 37.3536532]]]}}, {"type": "Feature", "properties": {"kind": "booth", "id": "b114", "name": "군포시민 참여전시", "cat": "전시", "popularity": 1, "servers": 4, "serviceSec": 120, "queueDir": [0.9997, 0.0247], "source": "OSM way 474632279 산책로 양옆 3.5m — 위치 가정 2026-09-08"}, "geometry": {"type": "Polygon", "coordinates": [[[126.9254461, 37.353597], [126.9254483, 37.3535252], [126.9254822, 37.3535259], [126.9254799, 37.3535977], [126.9254461, 37.353597]]]}}, {"type": "Feature", "properties": {"kind": "view", "id": "rest", "name": "휴식존", "popularity": 2, "queueDir": [0, 0], "source": "위치 가정 2026-09-08"}, "geometry": {"type": "Polygon", "coordinates": [[[126.9255434, 37.3536476], [126.925504, 37.3534707], [126.9255708, 37.3534613], [126.9256102, 37.3536382], [126.9255434, 37.3536476]]]}}, {"type": "Feature", "properties": {"kind": "toilet", "id": "t_park2", "name": "화장실(철쭉공원)", "popularity": 2, "servers": 6, "serviceSec": 90}, "geometry": {"type": "Polygon", "coordinates": [[[126.9254145, 37.3534741], [126.9254408, 37.3534343], [126.9254658, 37.3534447], [126.9254396, 37.3534845], [126.9254145, 37.3534741]]]}}, {"type": "Feature", "properties": {"kind": "corridor", "width": 3, "name": "", "source": "OSM way 427472366 (footway) — 자동 반영 2026-09-08, 부지 경계에서 절단"}, "geometry": {"type": "LineString", "coordinates": [[126.924058, 37.3553469], [126.9242274, 37.3553504], [126.9243234, 37.3553683], [126.924482, 37.3553789], [126.9245887, 37.3553959], [126.9246424, 37.3554038], [126.9247547, 37.3554319], [126.9248479, 37.3554869], [126.9247801, 37.3555389], [126.9247453, 37.3555764], [126.9247285, 37.3556622], [126.9247261, 37.3557873], [126.9247113, 37.3558873], [126.9247177, 37.3560025], [126.924761, 37.3560964], [126.9248174, 37.3562034], [126.9246623, 37.3562684], [126.9245923, 37.3563657], [126.9245853, 37.3564798]]}}, {"type": "Feature", "properties": {"kind": "corridor", "width": 1.5, "name": "", "source": "OSM way 468380994 (steps) — 자동 반영 2026-09-08, 부지 경계에서 절단"}, "geometry": {"type": "LineString", "coordinates": [[126.9252405, 37.3543212], [126.9254218, 37.354303], [126.9255665, 37.3543138], [126.9256901, 37.3543177], [126.9258294, 37.3543232], [126.9259046, 37.3543529], [126.9259936, 37.3543947], [126.9259936, 37.3543947]]}}, {"type": "Feature", "properties": {"kind": "corridor", "width": 3, "name": "", "source": "OSM way 474632269 (footway) — 자동 반영 2026-09-08, 부지 경계에서 절단"}, "geometry": {"type": "LineString", "coordinates": [[126.925377, 37.3530103], [126.9254771, 37.3530541], [126.9255288, 37.3530809], [126.9256173, 37.3531044], [126.9256411, 37.3531127], [126.9256844, 37.3531279], [126.925742, 37.3531609], [126.925793, 37.3531961], [126.9258627, 37.3532883], [126.9259562, 37.3533462], [126.9260344, 37.3534386]]}}, {"type": "Feature", "properties": {"kind": "corridor", "width": 3, "name": "", "source": "OSM way 474632270 (footway) — 자동 반영 2026-09-08, 부지 경계에서 절단"}, "geometry": {"type": "LineString", "coordinates": [[126.9258493, 37.3525663], [126.925779, 37.3524252]]}}, {"type": "Feature", "properties": {"kind": "corridor", "width": 3, "name": "", "source": "OSM way 474632271 (footway) — 자동 반영 2026-09-08, 부지 경계에서 절단"}, "geometry": {"type": "LineString", "coordinates": [[126.9256926, 37.3517094], [126.925681, 37.3518155], [126.9257056, 37.3518734], [126.9257373, 37.3519477], [126.9257668, 37.3520565], [126.9257615, 37.352146], [126.9257889, 37.3522188], [126.9258017, 37.3522526], [126.9258473, 37.3523443], [126.925909, 37.3524466], [126.9259319, 37.3526227]]}}, {"type": "Feature", "properties": {"kind": "corridor", "width": 3, "name": "", "source": "OSM way 474632273 (footway) — 자동 반영 2026-09-08, 부지 경계에서 절단"}, "geometry": {"type": "LineString", "coordinates": [[126.9254706, 37.3527127], [126.9254263, 37.3525958], [126.9254273, 37.3524799], [126.9254621, 37.3523577], [126.9254463, 37.3522533], [126.9254028, 37.3521658], [126.9253995, 37.3520671], [126.9254212, 37.3519684], [126.9254215, 37.3518155], [126.9253835, 37.3517836]]}}, {"type": "Feature", "properties": {"kind": "corridor", "width": 3, "name": "", "source": "OSM way 474632274 (footway) — 자동 반영 2026-09-08, 부지 경계에서 절단"}, "geometry": {"type": "LineString", "coordinates": [[126.9257502, 37.3530726], [126.9257843, 37.3531289], [126.9257977, 37.3531641], [126.925793, 37.3531961]]}}, {"type": "Feature", "properties": {"kind": "corridor", "width": 3, "name": "", "source": "OSM way 474632275 (footway) — 자동 반영 2026-09-08, 부지 경계에서 절단"}, "geometry": {"type": "LineString", "coordinates": [[126.9259588, 37.353024], [126.9258057, 37.3530607], [126.9257502, 37.3530726], [126.9257065, 37.353082], [126.9256411, 37.3531127]]}}, {"type": "Feature", "properties": {"kind": "corridor", "width": 3, "name": "", "source": "OSM way 474632276 (footway) — 자동 반영 2026-09-08, 부지 경계에서 절단"}, "geometry": {"type": "LineString", "coordinates": [[126.9260773, 37.3532126], [126.9258627, 37.3532883], [126.9257731, 37.3532648], [126.9256779, 37.353262], [126.9255727, 37.3532811], [126.9254752, 37.3533248], [126.9253953, 37.3533824]]}}, {"type": "Feature", "properties": {"kind": "corridor", "width": 3, "name": "", "source": "OSM way 474632277 (footway) — 자동 반영 2026-09-08, 부지 경계에서 절단"}, "geometry": {"type": "LineString", "coordinates": [[126.9262899, 37.3539319], [126.9261846, 37.3538778], [126.9259741, 37.353744]]}}, {"type": "Feature", "properties": {"kind": "corridor", "width": 3, "name": "", "source": "OSM way 584794230 (footway) — 자동 반영 2026-09-08, 부지 경계에서 절단"}, "geometry": {"type": "LineString", "coordinates": [[126.9258829, 37.3540425], [126.9258098, 37.3540508], [126.9257373, 37.3540372], [126.9255699, 37.3539406], [126.9254901, 37.3540201]]}}, {"type": "Feature", "properties": {"kind": "corridor", "width": 3, "name": "", "source": "OSM way 584794231 (footway) — 자동 반영 2026-09-08, 부지 경계에서 절단"}, "geometry": {"type": "LineString", "coordinates": [[126.9260344, 37.3534386], [126.9260611, 37.3535157], [126.9260604, 37.3536015], [126.9260248, 37.3536855], [126.9259741, 37.353744], [126.9259171, 37.3537829], [126.9258205, 37.3538255], [126.9257031, 37.3538437], [126.925635, 37.3538708], [126.9255699, 37.3539406]]}}, {"type": "Feature", "properties": {"kind": "corridor", "width": 1.5, "name": "", "source": "OSM way 584794233 (steps) — 자동 반영 2026-09-08, 부지 경계에서 절단"}, "geometry": {"type": "LineString", "coordinates": [[126.9253972, 37.3531789], [126.9252565, 37.3531759]]}}, {"type": "Feature", "properties": {"kind": "corridor", "width": 3, "name": "", "source": "OSM way 584794234 (footway) — 자동 반영 2026-09-08, 부지 경계에서 절단"}, "geometry": {"type": "LineString", "coordinates": [[126.9251627, 37.353494], [126.9251929, 37.352927], [126.9252565, 37.3531759], [126.9251627, 37.353494], [126.9252381, 37.3539265], [126.9254507, 37.3542751]]}}, {"type": "Feature", "properties": {"kind": "corridor", "width": 3, "name": "", "source": "OSM way 584794235 (footway) — 자동 반영 2026-09-08, 부지 경계에서 절단"}, "geometry": {"type": "LineString", "coordinates": [[126.9257056, 37.3518734], [126.9258587, 37.3516752]]}}, {"type": "Feature", "properties": {"kind": "corridor", "width": 3, "name": "", "source": "OSM way 584794236 (footway) — 자동 반영 2026-09-08, 부지 경계에서 절단"}, "geometry": {"type": "LineString", "coordinates": [[126.9256321, 37.352605], [126.9256851, 37.3523668], [126.925742, 37.3522696], [126.9257889, 37.3522188]]}}, {"type": "Feature", "properties": {"kind": "corridor", "width": 3, "name": "", "source": "OSM way 584794237 (footway) — 자동 반영 2026-09-08, 부지 경계에서 절단"}, "geometry": {"type": "LineString", "coordinates": [[126.9259234, 37.3528394], [126.9257872, 37.3528508]]}}, {"type": "Feature", "properties": {"kind": "corridor", "width": 6, "name": "", "source": "OSM way 925376623 (pedestrian) — 자동 반영 2026-09-08, 부지 경계에서 절단"}, "geometry": {"type": "LineString", "coordinates": [[126.9256722, 37.3549724], [126.9257613, 37.3550434], [126.9257752, 37.35508], [126.9258487, 37.3550935], [126.925869, 37.3551153], [126.9258966, 37.3551144], [126.9259136, 37.3550312], [126.9259354, 37.3549562], [126.9259679, 37.3548399], [126.9259516, 37.3547447], [126.9260078, 37.3545944], [126.9260758, 37.3544511], [126.9259198, 37.354393], [126.9258405, 37.3545732], [126.9258294, 37.3546839], [126.9257488, 37.3547463], [126.9257547, 37.3547646], [126.9257636, 37.3548272], [126.9257496, 37.3548847], [126.9257154, 37.3549361], [126.9256722, 37.3549724]]}}]}